[{"OBJECT_NAME":"ONEWEB-0300","OBJECT_ID":"2021-075Q","EPOCH":"2025-08-09T12:32:38.910048","MEAN_MOTION":13.12442414,"ECCENTRICITY":0.0002101,"INCLINATION":87.8847,"RA_OF_ASC_NODE":52.6014,"ARG_OF_PERICENTER":88.9072,"MEAN_ANOMALY":271.2297,"EPHEMERIS_TYPE":0,"CLASSIFICATION_TYPE":"U","NORAD_CAT_ID":49089,"ELEMENT_SET_NO":999,"REV_AT_EPOCH":19432,"BSTAR":0.0013004,"MEAN_MOTION_DOT":4.81e-6,"MEAN_MOTION_DDOT":0},{"OBJECT_NAME":"ONEWEB-0301","OBJECT_ID":"2021-075R","EPOCH":"2025-08-09T13:59:03.522624","MEAN_MOTION":13.12444972,"ECCENTRICITY":0.000222,"INCLINATION":87.8848,"RA_OF_ASC_NODE":52.5949,"ARG_OF_PERICENTER":88.2628,"MEAN_ANOMALY":271.8755,"EPHEMERIS_TYPE":0,"CLASSIFICATION_TYPE":"U","NORAD_CAT_ID":49090,"ELEMENT_SET_NO":999,"REV_AT_EPOCH":19369,"BSTAR":0.00042554,"MEAN_MOTION_DOT":1.66e-6,"MEAN_MOTION_DDOT":0},{"OBJECT_NAME":"ONEWEB-0302","OBJECT_ID":"2021-075S","EPOCH":"2025-08-09T11:50:37.155840","MEAN_MOTION":13.12441759,"ECCENTRICITY":0.000138,"INCLINATION":87.8856,"RA_OF_ASC_NODE":52.6164,"ARG_OF_PERICENTER":85.5401,"MEAN_ANOMALY":274.5885,"EPHEMERIS_TYPE":0,"CLASSIFICATION_TYPE":"U","NORAD_CAT_ID":49091,"ELEMENT_SET_NO":999,"REV_AT_EPOCH":19366,"BSTAR":-0.00062943,"MEAN_MOTION_DOT":-2.14e-6,"MEAN_MOTION_DDOT":0},{"OBJECT_NAME":"ONEWEB-0304","OBJECT_ID":"2021-075T","EPOCH":"2025-08-09T14:27:11.884896","MEAN_MOTION":13.17650772,"ECCENTRICITY":0.0001701,"INCLINATION":87.9029,"RA_OF_ASC_NODE":67.8715,"ARG_OF_PERICENTER":89.8784,"MEAN_ANOMALY":270.2543,"EPHEMERIS_TYPE":0,"CLASSIFICATION_TYPE":"U","NORAD_CAT_ID":49092,"ELEMENT_SET_NO":999,"REV_AT_EPOCH":19254,"BSTAR":7.0598e-5,"MEAN_MOTION_DOT":4.0e-7,"MEAN_MOTION_DDOT":0},{"OBJECT_NAME":"ONEWEB-0305","OBJECT_ID":"2021-075U","EPOCH":"2025-08-09T14:17:30.885504","MEAN_MOTION":13.17646111,"ECCENTRICITY":0.0001637,"INCLINATION":87.9035,"RA_OF_ASC_NODE":67.8494,"ARG_OF_PERICENTER":100.2567,"MEAN_ANOMALY":259.8749,"EPHEMERIS_TYPE":0,"CLASSIFICATION_TYPE":"U","NORAD_CAT_ID":49093,"ELEMENT_SET_NO":999,"REV_AT_EPOCH":19257,"BSTAR":0.0017666,"MEAN_MOTION_DOT":6.99e-6,"MEAN_MOTION_DDOT":0},{"OBJECT_NAME":"ONEWEB-0308","OBJECT_ID":"2021-075V","EPOCH":"2025-08-09T13:31:01.988544","MEAN_MOTION":13.124429,"ECCENTRICITY":0.0001778,"INCLINATION":87.8851,"RA_OF_ASC_NODE":52.5954,"ARG_OF_PERICENTER":87.6772,"MEAN_ANOMALY":272.456,"EPHEMERIS_TYPE":0,"CLASSIFICATION_TYPE":"U","NORAD_CAT_ID":49094,"ELEMENT_SET_NO":999,"REV_AT_EPOCH":19368,"BSTAR":-0.00077947,"MEAN_MOTION_DOT":-2.68e-6,"MEAN_MOTION_DDOT":0},{"OBJECT_NAME":"ONEWEB-0309","OBJECT_ID":"2021-075W","EPOCH":"2025-08-09T14:22:21.134208","MEAN_MOTION":13.17648684,"ECCENTRICITY":0.0001362,"INCLINATION":87.9029,"RA_OF_ASC_NODE":67.8656,"ARG_OF_PERICENTER":78.3479,"MEAN_ANOMALY":281.7805,"EPHEMERIS_TYPE":0,"CLASSIFICATION_TYPE":"U","NORAD_CAT_ID":49095,"ELEMENT_SET_NO":999,"REV_AT_EPOCH":19254,"BSTAR":0.00011028,"MEAN_MOTION_DOT":5.6e-7,"MEAN_MOTION_DDOT":0},{"OBJECT_NAME":"ONEWEB-0310","OBJECT_ID":"2021-075X","EPOCH":"2025-08-09T13:52:02.653536","MEAN_MOTION":13.12445193,"ECCENTRICITY":0.0001683,"INCLINATION":87.8851,"RA_OF_ASC_NODE":52.6381,"ARG_OF_PERICENTER":87.3741,"MEAN_ANOMALY":272.758,"EPHEMERIS_TYPE":0,"CLASSIFICATION_TYPE":"U","NORAD_CAT_ID":49096,"ELEMENT_SET_NO":999,"REV_AT_EPOCH":19431,"BSTAR":4.5454e-5,"MEAN_MOTION_DOT":2.9e-7,"MEAN_MOTION_DDOT":0},{"OBJECT_NAME":"ONEWEB-0311","OBJECT_ID":"2021-075Y","EPOCH":"2025-08-09T14:32:04.488864","MEAN_MOTION":13.17649663,"ECCENTRICITY":0.0001735,"INCLINATION":87.9024,"RA_OF_ASC_NODE":67.8649,"ARG_OF_PERICENTER":98.8004,"MEAN_ANOMALY":261.3324,"EPHEMERIS_TYPE":0,"CLASSIFICATION_TYPE":"U","NORAD_CAT_ID":49097,"ELEMENT_SET_NO":999,"REV_AT_EPOCH":19259,"BSTAR":0.00010911,"MEAN_MOTION_DOT":5.5e-7,"MEAN_MOTION_DDOT":0},{"OBJECT_NAME":"ONEWEB-0312","OBJECT_ID":"2021-075Z","EPOCH":"2025-08-09T13:04:36.323040","MEAN_MOTION":13.17650257,"ECCENTRICITY":0.0001468,"INCLINATION":87.9023,"RA_OF_ASC_NODE":67.9083,"ARG_OF_PERICENTER":93.2118,"MEAN_ANOMALY":266.9181,"EPHEMERIS_TYPE":0,"CLASSIFICATION_TYPE":"U","NORAD_CAT_ID":49098,"ELEMENT_SET_NO":999,"REV_AT_EPOCH":19256,"BSTAR":6.1959e-6,"MEAN_MOTION_DOT":1.5e-7,"MEAN_MOTION_DDOT":0},{"OBJECT_NAME":"ONEWEB-0313","OBJECT_ID":"2021-075AA","EPOCH":"2025-08-09T13:11:39.899040","MEAN_MOTION":13.17651366,"ECCENTRICITY":0.0001852,"INCLINATION":87.9019,"RA_OF_ASC_NODE":67.9212,"ARG_OF_PERICENTER":89.6637,"MEAN_ANOMALY":270.4707,"EPHEMERIS_TYPE":0,"CLASSIFICATION_TYPE":"U","NORAD_CAT_ID":49099,"ELEMENT_SET_NO":999,"REV_AT_EPOCH":19255,"BSTAR":0.0002237,"MEAN_MOTION_DOT":1.0e-6,"MEAN_MOTION_DDOT":0},{"OBJECT_NAME":"ONEWEB-0314","OBJECT_ID":"2021-075AB","EPOCH":"2025-08-09T14:12:39.027168","MEAN_MOTION":13.17650008,"ECCENTRICITY":0.0001461,"INCLINATION":87.903,"RA_OF_ASC_NODE":67.8467,"ARG_OF_PERICENTER":94.93,"MEAN_ANOMALY":265.1998,"EPHEMERIS_TYPE":0,"CLASSIFICATION_TYPE":"U","NORAD_CAT_ID":49100,"ELEMENT_SET_NO":999,"REV_AT_EPOCH":19253,"BSTAR":7.2322e-5,"MEAN_MOTION_DOT":4.1e-7,"MEAN_MOTION_DDOT":0},{"OBJECT_NAME":"ONEWEB-0315","OBJECT_ID":"2021-075AC","EPOCH":"2025-08-09T13:14:40.106112","MEAN_MOTION":13.12443542,"ECCENTRICITY":0.000191,"INCLINATION":87.8851,"RA_OF_ASC_NODE":52.5883,"ARG_OF_PERICENTER":99.9015,"MEAN_ANOMALY":260.233,"EPHEMERIS_TYPE":0,"CLASSIFICATION_TYPE":"U","NORAD_CAT_ID":49101,"ELEMENT_SET_NO":999,"REV_AT_EPOCH":19429,"BSTAR":-0.00083959,"MEAN_MOTION_DOT":-2.89e-6,"MEAN_MOTION_DDOT":0},{"OBJECT_NAME":"ONEWEB-0316","OBJECT_ID":"2021-075AD","EPOCH":"2025-08-09T12:49:04.644192","MEAN_MOTION":13.18686636,"ECCENTRICITY":0.0001914,"INCLINATION":87.913,"RA_OF_ASC_NODE":37.3686,"ARG_OF_PERICENTER":97.1325,"MEAN_ANOMALY":263.0025,"EPHEMERIS_TYPE":0,"CLASSIFICATION_TYPE":"U","NORAD_CAT_ID":49102,"ELEMENT_SET_NO":999,"REV_AT_EPOCH":19613,"BSTAR":0.00018782,"MEAN_MOTION_DOT":8.7e-7,"MEAN_MOTION_DDOT":0},{"OBJECT_NAME":"ONEWEB-0317","OBJECT_ID":"2021-075AE","EPOCH":"2025-08-09T13:05:19.961088","MEAN_MOTION":13.12440551,"ECCENTRICITY":0.0001532,"INCLINATION":87.8847,"RA_OF_ASC_NODE":52.6044,"ARG_OF_PERICENTER":60.4713,"MEAN_ANOMALY":299.6568,"EPHEMERIS_TYPE":0,"CLASSIFICATION_TYPE":"U","NORAD_CAT_ID":49103,"ELEMENT_SET_NO":999,"REV_AT_EPOCH":19431,"BSTAR":-0.00035073,"MEAN_MOTION_DOT":-1.13e-6,"MEAN_MOTION_DDOT":0},{"OBJECT_NAME":"ONEWEB-0318","OBJECT_ID":"2021-075AF","EPOCH":"2025-08-09T12:44:19.126752","MEAN_MOTION":13.18687419,"ECCENTRICITY":0.00019,"INCLINATION":87.9134,"RA_OF_ASC_NODE":37.3553,"ARG_OF_PERICENTER":98.5877,"MEAN_ANOMALY":261.547,"EPHEMERIS_TYPE":0,"CLASSIFICATION_TYPE":"U","NORAD_CAT_ID":49104,"ELEMENT_SET_NO":999,"REV_AT_EPOCH":19609,"BSTAR":0.0001174,"MEAN_MOTION_DOT":5.9e-7,"MEAN_MOTION_DDOT":0},{"OBJECT_NAME":"ONEWEB-0319","OBJECT_ID":"2021-075AG","EPOCH":"2025-08-09T14:34:29.944992","MEAN_MOTION":13.17650476,"ECCENTRICITY":0.0001756,"INCLINATION":87.9022,"RA_OF_ASC_NODE":67.889,"ARG_OF_PERICENTER":100.1143,"MEAN_ANOMALY":260.0187,"EPHEMERIS_TYPE":0,"CLASSIFICATION_TYPE":"U","NORAD_CAT_ID":49105,"ELEMENT_SET_NO":999,"REV_AT_EPOCH":19257,"BSTAR":2.524e-5,"MEAN_MOTION_DOT":2.3e-7,"MEAN_MOTION_DDOT":0},{"OBJECT_NAME":"ONEWEB-0323","OBJECT_ID":"2021-075AH","EPOCH":"2025-08-09T12:51:19.560384","MEAN_MOTION":13.12441688,"ECCENTRICITY":0.0001779,"INCLINATION":87.8849,"RA_OF_ASC_NODE":52.5921,"ARG_OF_PERICENTER":112.6406,"MEAN_ANOMALY":247.4911,"EPHEMERIS_TYPE":0,"CLASSIFICATION_TYPE":"U","NORAD_CAT_ID":49106,"ELEMENT_SET_NO":999,"REV_AT_EPOCH":19367,"BSTAR":0.00066081,"MEAN_MOTION_DOT":2.5e-6,"MEAN_MOTION_DDOT":0},{"OBJECT_NAME":"ONEWEB-0329","OBJECT_ID":"2021-075AJ","EPOCH":"2025-08-09T12:57:18.666432","MEAN_MOTION":13.1764777,"ECCENTRICITY":0.000166,"INCLINATION":87.9022,"RA_OF_ASC_NODE":67.9071,"ARG_OF_PERICENTER":93.5084,"MEAN_ANOMALY":266.6238,"EPHEMERIS_TYPE":0,"CLASSIFICATION_TYPE":"U","NORAD_CAT_ID":49107,"ELEMENT_SET_NO":999,"REV_AT_EPOCH":19254,"BSTAR":0.00011979,"MEAN_MOTION_DOT":5.9e-7,"MEAN_MOTION_DDOT":0},{"OBJECT_NAME":"ONEWEB-0330","OBJECT_ID":"2021-075AK","EPOCH":"2025-08-09T12:58:33.616704","MEAN_MOTION":13.17650321,"ECCENTRICITY":0.000151,"INCLINATION":87.9026,"RA_OF_ASC_NODE":67.9094,"ARG_OF_PERICENTER":85.7692,"MEAN_ANOMALY":274.3612,"EPHEMERIS_TYPE":0,"CLASSIFICATION_TYPE":"U","NORAD_CAT_ID":49108,"ELEMENT_SET_NO":999,"REV_AT_EPOCH":19258,"BSTAR":3.5318e-5,"MEAN_MOTION_DOT":2.7e-7,"MEAN_MOTION_DDOT":0},{"OBJECT_NAME":"ONEWEB-0292","OBJECT_ID":"2021-083A","EPOCH":"2025-08-09T10:43:27.630048","MEAN_MOTION":13.13469983,"ECCENTRICITY":0.0001868,"INCLINATION":87.8981,"RA_OF_ASC_NODE":22.1948,"ARG_OF_PERICENTER":98.9375,"MEAN_ANOMALY":261.1966,"EPHEMERIS_TYPE":0,"CLASSIFICATION_TYPE":"U","NORAD_CAT_ID":49186,"ELEMENT_SET_NO":999,"REV_AT_EPOCH":19000,"BSTAR":0.0006799,"MEAN_MOTION_DOT":2.61e-6,"MEAN_MOTION_DDOT":0},{"OBJECT_NAME":"ONEWEB-0303","OBJECT_ID":"2021-083B","EPOCH":"2025-08-09T10:50:18.353184","MEAN_MOTION":13.18685219,"ECCENTRICITY":0.0001855,"INCLINATION":87.9132,"RA_OF_ASC_NODE":37.3718,"ARG_OF_PERICENTER":96.8629,"MEAN_ANOMALY":263.2714,"EPHEMERIS_TYPE":0,"CLASSIFICATION_TYPE":"U","NORAD_CAT_ID":49187,"ELEMENT_SET_NO":999,"REV_AT_EPOCH":18889,"BSTAR":0.00011066,"MEAN_MOTION_DOT":5.7e-7,"MEAN_MOTION_DDOT":0},{"OBJECT_NAME":"ONEWEB-0306","OBJECT_ID":"2021-083C","EPOCH":"2025-08-09T12:25:19.043328","MEAN_MOTION":13.18685581,"ECCENTRICITY":0.0001787,"INCLINATION":87.9131,"RA_OF_ASC_NODE":37.344,"ARG_OF_PERICENTER":84.3167,"MEAN_ANOMALY":275.8169,"EPHEMERIS_TYPE":0,"CLASSIFICATION_TYPE":"U","NORAD_CAT_ID":49188,"ELEMENT_SET_NO":999,"REV_AT_EPOCH":18894,"BSTAR":0.0001968,"MEAN_MOTION_DOT":9.1e-7,"MEAN_MOTION_DDOT":0},{"OBJECT_NAME":"ONEWEB-0307","OBJECT_ID":"2021-083D","EPOCH":"2025-08-09T10:34:56.223264","MEAN_MOTION":13.13470759,"ECCENTRICITY":0.0001522,"INCLINATION":87.8967,"RA_OF_ASC_NODE":22.1976,"ARG_OF_PERICENTER":88.8022,"MEAN_ANOMALY":271.3281,"EPHEMERIS_TYPE":0,"CLASSIFICATION_TYPE":"U","NORAD_CAT_ID":49189,"ELEMENT_SET_NO":999,"REV_AT_EPOCH":19000,"BSTAR":0.00083245,"MEAN_MOTION_DOT":3.17e-6,"MEAN_MOTION_DDOT":0}]
